ICEYE-X43               
1 60539U 24149BZ  26166.16035325  .00003549  00000+0  29297-3 0  9991
2 60539  97.6783 243.1525 0008175  90.8145 269.4016 14.99603670 99815
HAWK-10A                
1 60540U 24149CA  26166.16372087  .00002126  00000+0  19211-3 0  9997
2 60540  97.6897 242.1098 0005100  84.0473 276.1330 14.96510964 99680
UMBRA-09                
1 60541U 24149CB  26166.15584771  .00014163  00000+0  69936-3 0  9995
2 60541  97.6978 253.3262 0000417 292.6648  67.4541 15.17992291100415
QPS-SAR-8 (AMATERU-IV)  
1 60542U 24149CC  26166.19790099  .00003703  00000+0  27151-3 0  9993
2 60542  97.6669 245.3648 0004933 112.0970 248.0780 15.04118762 99971
ARCTIC WEATHER SATELLITE
1 60543U 24149CD  26166.13874295  .00000806  00000+0  89609-4 0  9997
2 60543  97.6801 236.6629 0003621 107.8421 252.3192 14.89803750 98994
CAPELLA-15 (ACADIA-5)   
1 60544U 24149CE  26166.17700936  .00002717  00000+0  27079-3 0  9997
2 60544  97.6778 239.1315 0004870  84.3688 275.8086 14.92383557 99556
HAWK-10B                
1 60545U 24149CF  26166.16356752  .00001899  00000+0  17209-3 0  9994
2 60545  97.6817 241.4668 0007043  98.3336 261.8685 14.96510329 99685
ICEYE-X39               
1 60546U 24149CG  26166.14228403  .00003135  00000+0  25758-3 0  9997
2 60546  97.6766 243.1935 0005046 124.0450 236.1253 14.99885943 99811
UMBRA-10                
1 60547U 24149CH  26166.15540281  .00012476  00000+0  61663-3 0  9993
2 60547  97.6985 253.3533 0000714  72.8235 287.3077 15.17990785100424
ICEYE-X33               
1 60548U 24149CJ  26166.16906379  .00004053  00000+0  32305-3 0  9992
2 60548  97.7287 245.3249 0002419  73.0521 287.0968 15.00901628 99907
ICEYE-X40               
1 60549U 24149CK  26166.16498592  .00002333  00000+0  20280-3 0  9994
2 60549  97.6816 242.6928 0006625  87.9411 272.2570 14.97933456 99773
SATELIOT_1              
1 60550U 24149CL  26166.15633847  .00002451  00000+0  21207-3 0  9990
2 60550  97.6749 242.0873 0008398  86.7678 273.4505 14.98059240 99765
BRO-14                  
1 60551U 24149CM  26166.18895818  .00000579  00000+0  56470-4 0  9992
2 60551  97.6876 242.0026 0008059 101.8327 258.3799 14.96173389 99699
SATELIOT_3              
1 60552U 24149CN  26166.19887430  .00001571  00000+0  13780-3 0  9994
2 60552  97.6818 242.9200 0005895  90.8957 269.2941 14.98046230 99786
BRO-15                  
1 60553U 24149CP  26166.17139255  .00001019  00000+0  95527-4 0  9995
2 60553  97.6812 241.5889 0009604  93.6519 266.5801 14.96155961 99703
UM5-RIBAT               
1 60554U 24149CQ  26166.13902640  .00002822  00000+0  22534-3 0  9998
2 60554  97.6641 243.9670 0003611  64.9424 295.2175 15.01066259 99886
UM5-EOSAT               
1 60555U 24149CR  26166.10603329  .00004117  00000+0  32254-3 0  9997
2 60555  97.6705 244.8662 0008743 120.7212 239.4875 15.01515603 99908
LASARSAT                
1 62391U 24247Q   26164.61689910  .00032689  00000+0  65515-3 0  9991
2 62391  44.9751 282.2745 0008375 311.5212  48.4959 15.46168743 82768
CROCUBE                 
1 62394U 24247T   26165.58698051  .00034757  00000+0  65094-3 0  9997
2 62394  44.9722 274.1999 0008187 320.7516  39.2780 15.48102542 82947
TEVEL2-4                
1 63213U 25052D   26166.16079356  .00014823  00000+0  44473-3 0  9999
2 63213  97.3913  62.5494 0004846 107.3580 252.8193 15.34549992 69809
TEVEL2-5                
1 63214U 25052E   26165.98542140  .00017230  00000+0  51930-3 0  9996
2 63214  97.3911  62.3224 0004737 109.0151 251.1605 15.34373171 69779
TEVEL2-6                
1 63215U 25052F   26166.25856879  .00014751  00000+0  44547-3 0  9996
2 63215  97.3915  62.5804 0004650 108.6304 251.5445 15.34344374 69813
TEVEL2-1                
1 63217U 25052H   26166.22168631  .00014089  00000+0  43283-3 0  9997
2 63217  97.3885  62.1701 0004698 117.4023 242.7699 15.33812138 69798
TEVEL2-3                
1 63218U 25052J   26166.21640006  .00014569  00000+0  44668-3 0  9999
2 63218  97.3890  62.1864 0004652 117.3895 242.7821 15.33867104 69791
TEVEL2-2                
1 63219U 25052K   26166.22201124  .00014328  00000+0  43999-3 0  9994
2 63219  97.3886  62.1729 0004670 117.7961 242.3756 15.33820586 69791
TEVEL2-9                
1 63237U 25052AD  26166.26221952  .00013263  00000+0  43321-3 0  9995
2 63237  97.3947  61.5923 0007637 136.2267 223.9582 15.31847587 69733
TEVEL2-7                
1 63238U 25052AE  26166.23742285  .00012882  00000+0  42471-3 0  9991
2 63238  97.3951  61.4847 0007732 136.5558 223.6294 15.31552974 69724
TEVEL2-8                
1 63239U 25052AF  26166.24565472  .00013007  00000+0  42900-3 0  9991
2 63239  97.3952  61.4697 0007747 137.3635 222.8209 15.31537098 69727
FORESAIL-1 PRIME        
1 66778U 25276DS  26166.15169850  .00004477  00000+0  21912-3 0  9991
2 66778  97.4203 239.4592 0003938 109.0976 251.0685 15.18685264 30095
